GSAT-17                 
1 42815U 17040B   26162.35637655 -.00000241  00000+0  00000+0 0  9995
2 42815   0.1114  88.0254 0001601 207.2283 186.2546  1.00270654 32730
INTELSAT 35E (IS-35E)   
1 42818U 17041A   26163.27475891 -.00000223  00000+0  00000+0 0  9993
2 42818   0.0012   4.8318 0001546  71.3906 248.8223  1.00270153 32760
TDRS 13                 
1 42915U 17047A   26163.26254603 -.00000087  00000+0  00000+0 0  9990
2 42915   3.4504   2.6020 0014465 106.0673 235.0069  1.00271525 32296
QZS-3 (MICHIBIKI-3)     
1 42917U 17048A   26163.28993929  .00000000  00000+0  00000+0 0  9990
2 42917   0.0252 184.7315 0002415 266.4892  40.7558  1.00265367 32219
AMAZONAS 5              
1 42934U 17053A   26160.32980735 -.00000266  00000+0  00000+0 0  9993
2 42934   0.0312 323.9850 0002412  64.7103 286.7531  1.00270254 31962
INTELSAT 37E (IS-37E)   
1 42950U 17059A   26163.26124603 -.00000125  00000+0  00000+0 0  9991
2 42950   0.0159  27.6250 0002385  71.5372 237.4854  1.00272904 32016
BSAT-4A                 
1 42951U 17059B   26160.00712714 -.00000334  00000+0  00000+0 0  9999
2 42951   0.0365   6.7991 0004164  58.5529 304.4340  1.00272912 31712
QZS-4 (MICHIBIKI-4)     
1 42965U 17062A   26162.36373251 -.00000318  00000+0  00000+0 0  9990
2 42965  40.1116 343.5575 0745200 271.6390 272.9173  1.00252284 31749
SES-11 (ECHOSTAR 105)   
1 42967U 17063A   26160.67756544 -.00000072  00000+0  00000+0 0  9992
2 42967   0.0151 352.2876 0002679  98.2971 306.4353  1.00270770 31642
KOREASAT 5A             
1 42984U 17067A   26163.28716596 -.00000343  00000+0  00000+0 0  9999
2 42984   0.0096 324.4145 0000441 142.0867  10.6440  1.00269063 31482
ALCOMSAT 1              
1 43039U 17078A   26163.25985935 -.00000171  00000+0  00000+0 0  9994
2 43039   0.0438  76.3959 0002184   0.1278 252.8341  1.00271648 31242
SBIRS GEO-3 (USA 282)   
1 43162U 18009A   26163.29454054  .00000142  00000+0  00000+0 0  9990
2 43162   2.1807  11.8584 0001878  64.4795 130.9276  1.00271475 30796
AL YAH 3                
1 43174U 18012A   26163.26081270 -.00000141  00000+0  00000+0 0  9990
2 43174   1.5385  83.1642 0003926 357.8553 253.3686  1.00270494 30792
SES-14                  
1 43175U 18012B   26160.47501219 -.00000261  00000+0  00000+0 0  9994
2 43175   0.0220  31.0141 0001057  53.8990 296.4420  1.00270313  6946
GOES 17                 
1 43226U 18022A   26163.24711134 -.00000167  00000+0  00000+0 0  9994
2 43226   0.9240  85.7987 0000455  26.2240 148.0277  1.00270638 30377
HISPASAT 30W-6          
1 43228U 18023A   26160.19333439 -.00000199  00000+0  00000+0 0  9991
2 43228   0.0466  43.0702 0006065  24.4046 229.6971  1.00270107 30322
SUPERBIRD-B3            
1 43271U 18033A   26163.22557051 -.00000077  00000+0  00000+0 0  9990
2 43271   0.0132 326.5571 0001188 143.4640  33.7413  1.00270423 30018
HYLAS 4                 
1 43272U 18033B   26162.68762690 -.00000217  00000+0  00000+0 0  9993
2 43272   0.0185  56.9141 0001164  24.2309  32.9514  1.00269105 30014
IRNSS-1I                
1 43286U 18035A   26162.84780300  .00000079  00000+0  00000+0 0  9991
2 43286  28.7419  74.2800 0017886 181.8135   4.1621  1.00270911 30024
USA 283                 
1 43339U 18036A   26161.43655905  .00000000  00000+0  00000+0 0  9991
2 43339   0.0149 323.1993 0000130 214.6638  12.1871  1.00269147 25223
BANGABANDHUSAT-1        
1 43463U 18044A   26162.67670735  .00000000  00000+0  00000+0 0  9993
2 43463   0.0190   5.3701 0001681  79.9183 177.4299  1.00267647 29655
SES-12                  
1 43488U 18049A   26163.28343280 -.00000254  00000+0  00000+0 0  9997
2 43488   0.0185  25.1328 0000986 273.7329 158.8011  1.00272491 29371
BEIDOU-2 IGSO-7         
1 43539U 18057A   26162.92990737  .00000035  00000+0  00000+0 0  9994
2 43539  55.1941 163.1041 0104883 237.9036 304.3892  1.00252608 29072
TELSTAR 19V             
1 43562U 18059A   26163.27048270 -.00000264  00000+0  00000+0 0  9992
2 43562   0.0060 237.5001 0002479 236.3614 181.1159  1.00270259 29095
TELKOM 4 (MERAH PUTIH)  
1 43587U 18064A   26162.84767098  .00000000  00000+0  00000+0 0  9990
2 43587   0.0216  11.1867 0001311 107.5880 194.5610  1.00267424 28829
TELSTAR 18V             
1 43611U 18069A   26163.29210597 -.00000279  00000+0  00000+0 0  9999
2 43611   0.0151 318.8856 0001648 122.1662  62.7326  1.00269028 28590
